NORAD_CAT_ID,OBJECT_NAME,OBJECT_TYPE,EPOCH,MEAN_MOTION,ECCENTRICITY,INCLINATION,RA_OF_ASC_NODE,ARG_OF_PERICENTER,MEAN_ANOMALY,BSTAR,MEAN_MOTION_DOT,MEAN_MOTION_DDOT,TLE_LINE0,TLE_LINE1,TLE_LINE2,SEMIMAJOR_AXIS,PERIOD,APOGEE,PERIGEE,DECAYED
53821.0,STARLINK-4752,PAYLOAD,2022-11-18 22:00:00,15.73185814,0.0003498,53.2149,317.5578,8.6428,23.5091,-0.00016011,-0.00023027,0.0,0 STARLINK-4752,1 53821U 22114D   22322.91667824 -.00023027  00000-0 -16011-3 0  9991,2 53821  53.2149 317.5578 0003498   8.6428  23.5091 15.73185814 10153,6727.936,91.534,352.154,347.44699999999995,0.0
53821.0,STARLINK-4752,PAYLOAD,2022-11-19 08:00:01,15.73321758,0.0003645,53.2145,315.4982,10.6043,222.7694,0.0017511,0.00254072,0.0,0 STARLINK-4752,1 53821U 22114D   22323.33334491  .00254072  00000-0  17511-2 0  9998,2 53821  53.2145 315.4982 0003645  10.6043 222.7694 15.73321758 10224,6727.5480000000025,91.526,351.865,346.961,0.0
53821.0,STARLINK-4752,PAYLOAD,2022-11-19 14:00:01,15.7321891,0.0003702,53.214,314.2605,12.6831,197.2701,-0.00049882,-0.00070136,0.0,0 STARLINK-4752,1 53821U 22114D   22323.58334491 -.00070136  00000-0 -49882-3 0  9991,2 53821  53.2140 314.2605 0003702  12.6831 197.2701 15.73218910  1308,6727.840999999999,91.532,352.19699999999995,347.216,0.0
53821.0,STARLINK-4752,PAYLOAD,2022-11-19 22:00:00,15.73154708,0.0003458999999999,53.2142,312.6091,13.0684,285.8084,0.00077424,0.00109273,0.0,0 STARLINK-4752,1 53821U 22114D   22323.91667824  .00109273  00000-0  77424-3 0  9993,2 53821  53.2142 312.6091 0003459  13.0684 285.8084 15.73154708  1303,6728.024,91.536,352.217,347.56199999999984,0.0
53821.0,STARLINK-4752,PAYLOAD,2022-11-20 06:00:00,15.732431900000002,0.0003648,53.2143,310.9616,11.7913,15.997,-0.00054768,-0.00076962,0.0,0 STARLINK-4752,1 53821U 22114D   22324.25001157 -.00076962  00000-0 -54768-3 0  9998,2 53821  53.2143 310.9616 0003648  11.7913  15.9970 15.73243190 10364,6727.772,91.531,352.091,347.18300000000005,0.0
53821.0,STARLINK-4752,PAYLOAD,2022-11-20 14:00:01,15.73234449,0.0003649,53.2142,309.3114,8.3196,108.405,-0.00067134,-0.00093976,0.0,0 STARLINK-4752,1 53821U 22114D   22324.58334491 -.00093976  00000-0 -67134-3 0  9999,2 53821  53.2142 309.3114 0003649   8.3196 108.4050 15.73234449  1302,6727.797,91.531,352.117,347.207,0.0
53821.0,STARLINK-4752,PAYLOAD,2022-11-20 22:00:00,15.73169229,0.0003374,53.2142,307.6603,7.502999999999999,198.1514,0.00016602,0.00022715,0.0,0 STARLINK-4752,1 53821U 22114D   22324.91667824  .00022715  00000-0  16602-3 0  9990,2 53821  53.2142 307.6603 0003374   7.5030 198.1514 15.73169229  1303,6727.983,91.535,352.11800000000005,347.57800000000015,0.0
53821.0,STARLINK-4752,PAYLOAD,2022-11-21 08:00:01,15.73139445,0.0003644,53.2139,305.6006,6.8137,40.0075,0.00060077,0.00084346,0.0,0 STARLINK-4752,1 53821U 22114D   22325.33334491  .00084346  00000-0  60077-3 0  9991,2 53821  53.2139 305.6006 0003644   6.8137  40.0075 15.73139445 10533,6728.068,91.537,352.385,347.481,0.0
53821.0,STARLINK-4752,PAYLOAD,2022-11-21 14:00:01,15.73211073,0.0003587,53.2134,304.3624,7.1455,16.3395,0.00018739,0.00025777,0.0,0 STARLINK-4752,1 53821U 22114D   22325.58334491  .00025777  00000-0  18739-3 0  9999,2 53821  53.2134 304.3624 0003587   7.1455  16.3395 15.73211073  1307,6727.864000000001,91.533,352.142,347.315,0.0
53821.0,STARLINK-4752,PAYLOAD,2022-11-21 22:00:00,15.73235837,0.0003362,53.2138,302.7113,11.1467,101.2892,-9.6479e-05,-0.00014166,0.0,0 STARLINK-4752,1 53821U 22114D   22325.91667824 -.00014166  00000-0 -96479-4 0  9995,2 53821  53.2138 302.7113 0003362  11.1467 101.2892 15.73235837  1305,6727.793000000002,91.531,351.92,347.396,0.0
53821.0,STARLINK-4752,PAYLOAD,2022-11-22 08:00:01,15.73196415,0.0003634,53.2141,300.6514,10.7384,302.9084,0.00010814,0.00014582,0.0,0 STARLINK-4752,1 53821U 22114D   22326.33334491  .00014582  00000-0  10814-3 0  9991,2 53821  53.2141 300.6514 0003634  10.7384 302.9084 15.73196415 10699,6727.905,91.533,352.215,347.325,0.0
53821.0,STARLINK-4752,PAYLOAD,2022-11-22 14:00:01,15.73222308,0.0003523999999999,53.214,299.4129,7.898,282.5016,-0.00057217,-0.0008027,0.0,0 STARLINK-4752,1 53821U 22114D   22326.58335648 -.00080270  00000-0 -57217-3 0  9990,2 53821  53.2140 299.4129 0003524   7.8980 282.5016 15.73222308  1309,6727.831999999999,91.532,352.06699999999995,347.326,0.0
53821.0,STARLINK-4752,PAYLOAD,2022-11-22 22:00:00,15.7319609,0.0003351,53.2141,297.7622,7.7478,11.501,6.8875e-05,9.054e-05,0.0,0 STARLINK-4752,1 53821U 22114D   22326.91667824  .00009054  00000-0  68875-4 0  9993,2 53821  53.2141 297.7622 0003351   7.7478  11.5010 15.73196090 10782,6727.906,91.533,352.026,347.517,0.0
53821.0,STARLINK-4752,PAYLOAD,2022-11-23 14:00:01,15.73222718,0.0003457,53.2135,294.464,7.6320000000000014,189.437,-0.00016532,-0.0002379,0.0,0 STARLINK-4752,1 53821U 22114D   22327.58334491 -.00023790  00000-0 -16532-3 0  9995,2 53821  53.2135 294.4640 0003457   7.6320 189.4370 15.73222718  1300,6727.83,91.532,352.021,347.37,0.0
53821.0,STARLINK-4752,PAYLOAD,2022-11-23 22:00:00,15.73192462,0.0003292,53.2139,292.8133,11.6626,274.3551,0.00019737,0.00027164,0.0,0 STARLINK-4752,1 53821U 22114D   22327.91667824  .00027164  00000-0  19737-3 0  9998,2 53821  53.2139 292.8133 0003292  11.6626 274.3551 15.73192462  1301,6727.917,91.534,351.996,347.56699999999995,0.0
53821.0,STARLINK-4752,PAYLOAD,2022-11-24 00:00:00,15.73208067,0.0003348999999999,53.214,292.4015,11.8733,26.3732,-3.9242e-05,-6.131e-05,0.0,0 STARLINK-4752,1 53821U 22114D   22328.00001157 -.00006131  00000-0 -39242-4 0  9997,2 53821  53.2140 292.4015 0003349  11.8733  26.3732 15.73208067 10958,6727.871999999999,91.533,351.99,347.4840000000001,0.0
53821.0,STARLINK-4752,PAYLOAD,2022-11-24 14:00:01,15.73199991,0.0003434,53.2141,289.515,9.7352,94.1288,0.0001375999999999,0.00018736,0.0,0 STARLINK-4752,1 53821U 22114D   22328.58334491  .00018736  00000-0  13760-3 0  9998,2 53821  53.2141 289.5150 0003434   9.7352  94.1288 15.73199991  1307,6727.895,91.533,352.071,347.45,0.0
53821.0,STARLINK-4752,PAYLOAD,2022-11-24 22:00:00,15.73257133,0.0003244,53.2142,287.8648,11.3536,181.4376,-0.0001911,-0.0002743,0.0,0 STARLINK-4752,1 53821U 22114D   22328.91667824 -.00027430  00000-0 -19110-3 0  9992,2 53821  53.2142 287.8648 0003244  11.3536 181.4376 15.73257133 11103,6727.732,91.53,351.78,347.415,0.0
53821.0,STARLINK-4752,PAYLOAD,2022-11-25 14:00:01,15.73195774,0.0003275,53.2136,284.5662,6.7987,3.9373,0.0002937,0.00040799,0.0,0 STARLINK-4752,1 53821U 22114D   22329.58334491  .00040799  00000-0  29370-3 0  9997,2 53821  53.2136 284.5662 0003275   6.7987   3.9373 15.73195774  1306,6727.906999999997,91.533,351.976,347.569,0.0
53821.0,STARLINK-4752,PAYLOAD,2022-11-25 22:00:00,15.73267958,0.0003161,53.2139,282.9161,10.2789,89.3914,-0.00027547,-0.00039228,0.0,0 STARLINK-4752,1 53821U 22114D   22329.91667824 -.00039228  00000-0 -27547-3 0  9994,2 53821  53.2139 282.9161 0003161  10.2789  89.3914 15.73267958 11268,6727.701,91.529,351.6930000000001,347.44,0.0
53821.0,STARLINK-4752,PAYLOAD,2022-11-26 14:00:01,15.73271959,0.0003235,53.2139,279.6173,8.0752,269.5785,-0.00084067,-0.00117376,0.0,0 STARLINK-4752,1 53821U 22114D   22330.58334491 -.00117376  00000-0 -84067-3 0  9991,2 53821  53.2139 279.6173 0003235   8.0752 269.5785 15.73271959 11366,6727.69,91.529,351.731,347.379,0.0
53821.0,STARLINK-4752,PAYLOAD,2022-11-26 22:00:00,15.73180689,0.0003088,53.2139,277.9674,10.6923,355.9154,-0.00019157,-0.00027406,0.0,0 STARLINK-4752,1 53821U 22114D   22330.91667824 -.00027406  00000-0 -19157-3 0  9999,2 53821  53.2139 277.9674 0003088  10.6923 355.9154 15.73180689  1300,6727.95,91.534,351.89300000000014,347.73800000000006,0.0
53821.0,STARLINK-4752,PAYLOAD,2022-11-27 06:00:00,15.731383,0.0003358,53.2134,276.3199,12.4317,83.0721,0.00075939,0.0010706,0.0,0 STARLINK-4752,1 53821U 22114D   22331.25001157  .00107060  00000-0  75939-3 0  9991,2 53821  53.2134 276.3199 0003358  12.4317  83.0721 15.73138300 11478,6728.071,91.537,352.195,347.677,0.0
53821.0,STARLINK-4752,PAYLOAD,2022-11-27 14:00:01,15.73234719,0.000312,53.213,274.6689,12.2122,172.178,-0.00038043,-0.00053768,0.0,0 STARLINK-4752,1 53821U 22114D   22331.58334491 -.00053768  00000-0 -38043-3 0  9999,2 53821  53.2130 274.6689 0003120  12.2122 172.1780 15.73234719  1305,6727.795999999999,91.531,351.76,347.56199999999984,0.0
53821.0,STARLINK-4752,PAYLOAD,2022-11-27 22:00:00,15.73208179,0.0003019,53.2132,273.0191,13.6492,259.6878,-0.00044127,-0.00062135,0.0,0 STARLINK-4752,1 53821U 22114D   22331.91667824 -.00062135  00000-0 -44127-3 0  9993,2 53821  53.2132 273.0191 0003019  13.6492 259.6878 15.73208179  1300,6727.871999999999,91.533,351.76800000000014,347.706,0.0
53821.0,STARLINK-4752,PAYLOAD,2022-11-28 16:00:00,15.73141759,0.0003021,53.214,269.3073,11.5379,191.8437,0.00079402,0.00112048,0.0,0 STARLINK-4752,1 53821U 22114D   22332.66667824  .00112048  00000-0  79402-3 0  9997,2 53821  53.2140 269.3073 0003021  11.5379 191.8437 15.73141759 11691,6728.061,91.537,351.959,347.894,0.0
53821.0,STARLINK-4752,PAYLOAD,2022-11-28 22:00:01,15.73209337,0.0003016,53.2146,268.0707,13.3887,166.7171,0.00033884,0.00047227,0.0,0 STARLINK-4752,1 53821U 22114D   22332.91668981  .00047227  00000-0  33884-3 0  9990,2 53821  53.2146 268.0707 0003016  13.3887 166.7171 15.73209337  1305,6727.869000000002,91.533,351.76300000000015,347.704,0.0
53821.0,STARLINK-4752,PAYLOAD,2022-11-29 08:00:01,15.73248278,0.0003203,53.2139,266.0103,8.471,12.7756,-0.00045273,-0.00063832,0.0,0 STARLINK-4752,1 53821U 22114D   22333.33334491 -.00063832  00000-0 -45273-3 0  9990,2 53821  53.2139 266.0103 0003203   8.4710  12.7756 15.73248278 11793,6727.7580000000025,91.53,351.777,347.468,0.0
53821.0,STARLINK-4752,PAYLOAD,2022-11-29 14:00:01,15.7318437,0.0002918,53.2141,264.7713,7.9527,350.0862,2.9862e-05,3.568e-05,0.0,0 STARLINK-4752,1 53821U 22114D   22333.58335648  .00003568  00000-0  29862-4 0  9997,2 53821  53.2141 264.7713 0002918   7.9527 350.0862 15.73184370  1304,6727.94,91.534,351.76800000000014,347.842,0.0
